start=new Date('2021-12-14T00:00:00.000Z').valueOf();
sats=[{"CENTER_NAME":"EARTH","NORAD_CAT_ID":"47553","DECAY_DATE":null,"LAUNCH_DATE":"2021-02-04","REF_FRAME":"TEME","SEMIMAJOR_AXIS":"6861.130","FILE":"3239585","BSTAR":"0.00581090000000","MEAN_MOTION":"15.27598701","TLE_LINE2":"2 47553  53.0590 114.0190 0001024  51.4523 308.6567 15.27598701 47811","OBJECT_TYPE":"PAYLOAD","RCS_SIZE":"LARGE","REV_AT_EPOCH":"4781","MEAN_MOTION_DDOT":"0.0000000000000","OBJECT_NAME":"STARLINK-1951","MEAN_ANOMALY":"308.6567","MEAN_ELEMENT_THEORY":"SGP4","ARG_OF_PERICENTER":"51.4523","RA_OF_ASC_NODE":"114.0190","EPHEMERIS_TYPE":"0","ELEMENT_SET_NO":"999","TIME_SYSTEM":"UTC","OBJECT_ID":"2021-009F","GP_ID":"191659010","TLE_LINE1":"1 47553U 21009F   21347.83396387  .00162081  00000-0  58109-2 0  9993","COUNTRY_CODE":"US","EPOCH":"2021-12-13T20:00:54.478368","MEAN_MOTION_DOT":"0.00162081","ECCENTRICITY":"0.00010240","PERIOD":"94.266","INCLINATION":"53.0590","PERIAPSIS":"482.293","APOAPSIS":"483.698","CLASSIFICATION_TYPE":"U","SITE":"AFETR"},{"MEAN_ELEMENT_THEORY":"SGP4","MEAN_ANOMALY":"220.9792","MEAN_MOTION_DDOT":"0.0000000000000","OBJECT_NAME":"STARLINK-1953","EPHEMERIS_TYPE":"0","ARG_OF_PERICENTER":"139.1531","RA_OF_ASC_NODE":"136.0944","BSTAR":"0.00007023000000","RCS_SIZE":"LARGE","REV_AT_EPOCH":"4749","OBJECT_TYPE":"PAYLOAD","TLE_LINE2":"2 47554  53.0554 136.0944 0004458 139.1531 220.9792 15.06403801 47493","MEAN_MOTION":"15.06403801","SEMIMAJOR_AXIS":"6925.337","REF_FRAME":"TEME","LAUNCH_DATE":"2021-02-04","FILE":"3239585","NORAD_CAT_ID":"47554","CENTER_NAME":"EARTH","DECAY_DATE":null,"CLASSIFICATION_TYPE":"U","PERIAPSIS":"544.115","APOAPSIS":"550.289","INCLINATION":"53.0554","SITE":"AFETR","MEAN_MOTION_DOT":"0.00000764","EPOCH":"2021-12-13T18:01:10.061760","PERIOD":"95.592","ECCENTRICITY":"0.00044580","ELEMENT_SET_NO":"999","COUNTRY_CODE":"US","TLE_LINE1":"1 47554U 21009G   21347.75081090  .00000764  00000-0  70230-4 0  9997","OBJECT_ID":"2021-009G","GP_ID":"191659261","TIME_SYSTEM":"UTC"},{"ELEMENT_SET_NO":"999","TLE_LINE1":"1 47555U 21009H   21347.72590768 -.00001388  00000-0 -74276-4 0  9991","COUNTRY_CODE":"US","TIME_SYSTEM":"UTC","GP_ID":"191660511","OBJECT_ID":"2021-009H","EPOCH":"2021-12-13T17:25:18.423552","MEAN_MOTION_DOT":"-0.00001388","PERIOD":"95.592","ECCENTRICITY":"0.00024170","PERIAPSIS":"545.552","APOAPSIS":"548.900","CLASSIFICATION_TYPE":"U","INCLINATION":"53.0534","SITE":"AFETR","NORAD_CAT_ID":"47555","CENTER_NAME":"EARTH","DECAY_DATE":null,"SEMIMAJOR_AXIS":"6925.361","LAUNCH_DATE":"2021-02-04","REF_FRAME":"TEME","FILE":"3239585","BSTAR":"-0.00007427600000","RCS_SIZE":"LARGE","REV_AT_EPOCH":"4763","MEAN_MOTION":"15.06396040","TLE_LINE2":"2 47555  53.0534 126.2141 0002417 101.2898 258.8363 15.06396040 47637","OBJECT_TYPE":"PAYLOAD","MEAN_ANOMALY":"258.8363","MEAN_ELEMENT_THEORY":"SGP4","OBJECT_NAME":"STARLINK-1954","MEAN_MOTION_DDOT":"0.0000000000000","ARG_OF_PERICENTER":"101.2898","RA_OF_ASC_NODE":"126.2141","EPHEMERIS_TYPE":"0"},{"INCLINATION":"53.0545","CLASSIFICATION_TYPE":"U","APOAPSIS":"548.614","PERIAPSIS":"545.840","SITE":"AFETR","ELEMENT_SET_NO":"999","GP_ID":"191660264","OBJECT_ID":"2021-009J","TIME_SYSTEM":"UTC","COUNTRY_CODE":"US","TLE_LINE1":"1 47556U 21009J   21347.89365325  .00000698  00000-0  65793-4 0  9994","MEAN_MOTION_DOT":"0.00000698","EPOCH":"2021-12-13T21:26:51.640800","ECCENTRICITY":"0.00020030","PERIOD":"95.592","BSTAR":"0.00006579300000","TLE_LINE2":"2 47556  53.0545 145.4459 0002003  98.6416 261.4800 15.06395535 47376","OBJECT_TYPE":"PAYLOAD","MEAN_MOTION":"15.06395535","RCS_SIZE":"LARGE","REV_AT_EPOCH":"4737","OBJECT_NAME":"STARLINK-1955","MEAN_MOTION_DDOT":"0.0000000000000","MEAN_ANOMALY":"261.4800","MEAN_ELEMENT_THEORY":"SGP4","EPHEMERIS_TYPE":"0","ARG_OF_PERICENTER":"98.6416","RA_OF_ASC_NODE":"145.4459","CENTER_NAME":"EARTH","NORAD_CAT_ID":"47556","DECAY_DATE":null,"REF_FRAME":"TEME","LAUNCH_DATE":"2021-02-04","SEMIMAJOR_AXIS":"6925.362","FILE":"3239585"},{"ARG_OF_PERICENTER":"86.2587","RA_OF_ASC_NODE":"145.6322","EPHEMERIS_TYPE":"0","MEAN_MOTION_DDOT":"0.0000000000000","OBJECT_NAME":"STARLINK-1956","MEAN_ANOMALY":"273.8653","MEAN_ELEMENT_THEORY":"SGP4","MEAN_MOTION":"15.06388411","TLE_LINE2":"2 47557  53.0547 145.6322 0002193  86.2587 273.8653 15.06388411 47370","OBJECT_TYPE":"PAYLOAD","RCS_SIZE":"LARGE","REV_AT_EPOCH":"4737","BSTAR":"0.00003779800000","FILE":"3239585","LAUNCH_DATE":"2021-02-04","REF_FRAME":"TEME","SEMIMAJOR_AXIS":"6925.384","DECAY_DATE":null,"CENTER_NAME":"EARTH","NORAD_CAT_ID":"47557","SITE":"AFETR","INCLINATION":"53.0547","PERIAPSIS":"545.730","APOAPSIS":"548.768","CLASSIFICATION_TYPE":"U","ECCENTRICITY":"0.00021930","PERIOD":"95.593","EPOCH":"2021-12-13T20:33:46.390752","MEAN_MOTION_DOT":"0.00000281","TIME_SYSTEM":"UTC","OBJECT_ID":"2021-009K","GP_ID":"191659510","TLE_LINE1":"1 47557U 21009K   21347.85678693  .00000281  00000-0  37798-4 0  9998","COUNTRY_CODE":"US","ELEMENT_SET_NO":"999"},{"ECCENTRICITY":"0.00016410","PERIOD":"95.592","MEAN_MOTION_DOT":"0.00000895","EPOCH":"2021-12-13T20:05:52.089216","GP_ID":"191659761","OBJECT_ID":"2021-009L","TIME_SYSTEM":"UTC","COUNTRY_CODE":"US","TLE_LINE1":"1 47558U 21009L   21347.83740844  .00000895  00000-0  78951-4 0  9992","ELEMENT_SET_NO":"999","SITE":"AFETR","INCLINATION":"53.0563","CLASSIFICATION_TYPE":"U","PERIAPSIS":"546.062","APOAPSIS":"548.335","FILE":"3239585","REF_FRAME":"TEME","LAUNCH_DATE":"2021-02-04","SEMIMAJOR_AXIS":"6925.333","DECAY_DATE":null,"CENTER_NAME":"EARTH","NORAD_CAT_ID":"47558","EPHEMERIS_TYPE":"0","ARG_OF_PERICENTER":"92.2258","RA_OF_ASC_NODE":"115.6965","OBJECT_NAME":"STARLINK-1957","MEAN_MOTION_DDOT":"0.0000000000000","MEAN_ANOMALY":"267.8919","MEAN_ELEMENT_THEORY":"SGP4","TLE_LINE2":"2 47558  53.0563 115.6965 0001641  92.2258 267.8919 15.06404943 47780","OBJECT_TYPE":"PAYLOAD","MEAN_MOTION":"15.06404943","RCS_SIZE":"LARGE","REV_AT_EPOCH":"4778","BSTAR":"0.00007895100000"},{"PERIOD":"95.593","ECCENTRICITY":"0.00013680","EPOCH":"2021-12-13T19:14:06.790272","MEAN_MOTION_DOT":"-0.00000288","TLE_LINE1":"1 47559U 21009M   21347.80146748 -.00000288  00000-0 -46353-6 0  9994","COUNTRY_CODE":"US","TIME_SYSTEM":"UTC","OBJECT_ID":"2021-009M","GP_ID":"191660012","ELEMENT_SET_NO":"999","SITE":"AFETR","APOAPSIS":"548.180","PERIAPSIS":"546.285","CLASSIFICATION_TYPE":"U","INCLINATION":"53.0546","FILE":"3239585","SEMIMAJOR_AXIS":"6925.367","LAUNCH_DATE":"2021-02-04","REF_FRAME":"TEME","DECAY_DATE":null,"NORAD_CAT_ID":"47559","CENTER_NAME":"EARTH","RA_OF_ASC_NODE":"105.8715","ARG_OF_PERICENTER":"83.5629","EPHEMERIS_TYPE":"0","MEAN_ANOMALY":"276.5516","MEAN_ELEMENT_THEORY":"SGP4","MEAN_MOTION_DDOT":"0.0000000000000","OBJECT_NAME":"STARLINK-1958","RCS_SIZE":"LARGE","REV_AT_EPOCH":"4792","MEAN_MOTION":"15.06393856","TLE_LINE2":"2 47559  53.0546 105.8715 0001368  83.5629 276.5516 15.06393856 47923","OBJECT_TYPE":"PAYLOAD","BSTAR":"-0.00000046353000"},{"SITE":"AFETR","CLASSIFICATION_TYPE":"U","APOAPSIS":"548.254","PERIAPSIS":"546.189","INCLINATION":"53.0549","COUNTRY_CODE":"US","TLE_LINE1":"1 47560U 21009N   21347.86044190  .00000943  00000-0  82175-4 0  9996","GP_ID":"191660764","OBJECT_ID":"2021-009N","TIME_SYSTEM":"UTC","ELEMENT_SET_NO":"999","PERIOD":"95.592","ECCENTRICITY":"0.00014910","MEAN_MOTION_DOT":"0.00000943","EPOCH":"2021-12-13T20:39:02.180160","REV_AT_EPOCH":"4793","RCS_SIZE":"LARGE","TLE_LINE2":"2 47560  53.0549 105.6141 0001491 100.7674 259.3483 15.06397518 47930","OBJECT_TYPE":"PAYLOAD","MEAN_MOTION":"15.06397518","BSTAR":"0.00008217500000","EPHEMERIS_TYPE":"0","RA_OF_ASC_NODE":"105.6141","ARG_OF_PERICENTER":"100.7674","MEAN_ELEMENT_THEORY":"SGP4","MEAN_ANOMALY":"259.3483","MEAN_MOTION_DDOT":"0.0000000000000","OBJECT_NAME":"STARLINK-1959","DECAY_DATE":null,"NORAD_CAT_ID":"47560","CENTER_NAME":"EARTH","FILE":"3239585","SEMIMAJOR_AXIS":"6925.356","REF_FRAME":"TEME","LAUNCH_DATE":"2021-02-04"},{"EPOCH":"2021-12-13T20:20:28.904928","MEAN_MOTION_DOT":"0.00000656","PERIOD":"95.592","ECCENTRICITY":"0.00061740","ELEMENT_SET_NO":"999","TLE_LINE1":"1 47561U 21009P   21347.84755677  .00000656  00000-0  63063-4 0  9990","COUNTRY_CODE":"US","TIME_SYSTEM":"UTC","OBJECT_ID":"2021-009P","GP_ID":"191659011","PERIAPSIS":"542.914","APOAPSIS":"551.466","CLASSIFICATION_TYPE":"U","INCLINATION":"53.0564","SITE":"AFETR","SEMIMAJOR_AXIS":"6925.325","LAUNCH_DATE":"2021-02-04","REF_FRAME":"TEME","FILE":"3239585","NORAD_CAT_ID":"47561","CENTER_NAME":"EARTH","DECAY_DATE":null,"MEAN_ELEMENT_THEORY":"SGP4","MEAN_ANOMALY":"250.6039","OBJECT_NAME":"STARLINK-1960","MEAN_MOTION_DDOT":"0.0000000000000","ARG_OF_PERICENTER":"109.5617","RA_OF_ASC_NODE":"125.6730","EPHEMERIS_TYPE":"0","BSTAR":"0.00006306300000","RCS_SIZE":"LARGE","REV_AT_EPOCH":"4765","MEAN_MOTION":"15.06407704","TLE_LINE2":"2 47561  53.0564 125.6730 0006174 109.5617 250.6039 15.06407704 47650","OBJECT_TYPE":"PAYLOAD"},{"MEAN_MOTION_DOT":"0.00000610","EPOCH":"2021-12-13T20:41:42.539424","PERIOD":"95.592","ECCENTRICITY":"0.00018080","ELEMENT_SET_NO":"999","COUNTRY_CODE":"US","TLE_LINE1":"1 47562U 21009Q   21347.86229791  .00000610  00000-0  59851-4 0  9996","OBJECT_ID":"2021-009Q","GP_ID":"191659262","TIME_SYSTEM":"UTC","CLASSIFICATION_TYPE":"U","APOAPSIS":"548.477","PERIAPSIS":"545.973","INCLINATION":"53.0556","SITE":"AFETR","SEMIMAJOR_AXIS":"6925.360","REF_FRAME":"TEME","LAUNCH_DATE":"2021-02-04","FILE":"3239585","NORAD_CAT_ID":"47562","CENTER_NAME":"EARTH","DECAY_DATE":null,"MEAN_ANOMALY":"269.9354","MEAN_ELEMENT_THEORY":"SGP4","OBJECT_NAME":"STARLINK-1961","MEAN_MOTION_DDOT":"0.0000000000000","EPHEMERIS_TYPE":"0","ARG_OF_PERICENTER":"90.1842","RA_OF_ASC_NODE":"125.6028","BSTAR":"0.00005985100000","REV_AT_EPOCH":"4765","RCS_SIZE":"LARGE","TLE_LINE2":"2 47562  53.0556 125.6028 0001808  90.1842 269.9354 15.06396272 47656","OBJECT_TYPE":"PAYLOAD","MEAN_MOTION":"15.06396272"}];
